{"type": "FeatureCollection", "features": [ {"type": "Feature", "properties": {"norad_id": 44476, "name": "INTELSAT 39 (IS-39)", "group": "intelsat", "lat": -0.017467628967290295, "lon": -36.13358157168671, "alt_km": 35791.19919239151, "timestamp": "2025-12-20T11:30:28.038958+00:00", "meta": {"OBJECT_NAME": "INTELSAT 39 (IS-39)", "OBJECT_ID": "2019-049B", "EPOCH": "2025-12-20T03:15:13.442400", "MEAN_MOTION": 1.00270893, "ECCENTRICITY": 0.0001164, "INCLINATION": 0.0185, "RA_OF_ASC_NODE": 341.084, "ARG_OF_PERICENTER": 158.4294, "MEAN_ANOMALY": 60.2151, "EPHEMERIS_TYPE": 0, "CLASSIFICATION_TYPE": "U", "NORAD_CAT_ID": 44476, "ELEMENT_SET_NO": 999, "REV_AT_EPOCH": 2333, "BSTAR": 0, "MEAN_MOTION_DOT": 5.8e-07, "MEAN_MOTION_DDOT": 0}, "tle": {"line1": "1 44476U 19049B   25354.13557225  .00000058  00000+0  00000+0 0  9998", "line2": "2 44476   0.0185 341.0840 0001164 158.4294  60.2151  1.00270893 23332"}}, "geometry": {"type": "Point", "coordinates": [-36.13358157168671, -0.017467628967290295]}}, {"type": "Feature", "properties": {"norad_id": 46114, "name": "GALAXY 30 (G-30)", "group": "intelsat", "lat": 0.01821727773886963, "lon": 136.9203300609492, "alt_km": 35791.553442043565, "timestamp": "2025-12-20T11:30:28.038970+00:00", "meta": {"OBJECT_NAME": "GALAXY 30 (G-30)", "OBJECT_ID": "2020-056C", "EPOCH": "2025-12-20T04:45:38.640096", "MEAN_MOTION": 1.00273216, "ECCENTRICITY": 0.0002025, "INCLINATION": 0.0016, "RA_OF_ASC_NODE": 355.0076, "ARG_OF_PERICENTER": 275.2816, "MEAN_ANOMALY": 125.1734, "EPHEMERIS_TYPE": 0, "CLASSIFICATION_TYPE": "U", "NORAD_CAT_ID": 46114, "ELEMENT_SET_NO": 999, "REV_AT_EPOCH": 1949, "BSTAR": 0, "MEAN_MOTION_DOT": 6e-07, "MEAN_MOTION_DDOT": 0}, "tle": {"line1": "1 46114U 20056C   25354.19836389  .00000060  00000+0  00000+0 0  9999", "line2": "2 46114   0.0016 355.0076 0002025 275.2816 125.1734  1.00273216 19499"}}, "geometry": {"type": "Point", "coordinates": [136.9203300609492, 0.01821727773886963]}}, {"type": "Feature", "properties": {"norad_id": 54026, "name": "GALAXY 33 (G-33)", "group": "intelsat", "lat": 0.0341053118567105, "lon": 128.91034586816053, "alt_km": 35791.22306609053, "timestamp": "2025-12-20T11:30:28.038981+00:00", "meta": {"OBJECT_NAME": "GALAXY 33 (G-33)", "OBJECT_ID": "2022-128A", "EPOCH": "2025-12-20T04:45:38.640096", "MEAN_MOTION": 1.00271193, "ECCENTRICITY": 0.0001546, "INCLINATION": 0.0153, "RA_OF_ASC_NODE": 39.0928, "ARG_OF_PERICENTER": 229.5851, "MEAN_ANOMALY": 118.7712, "EPHEMERIS_TYPE": 0, "CLASSIFICATION_TYPE": "U", "NORAD_CAT_ID": 54026, "ELEMENT_SET_NO": 999, "REV_AT_EPOCH": 1194, "BSTAR": 0, "MEAN_MOTION_DOT": 1.03e-06, "MEAN_MOTION_DDOT": 0}, "tle": {"line1": "1 54026U 22128A   25354.19836389  .00000103  00000+0  00000+0 0  9990", "line2": "2 54026   0.0153  39.0928 0001546 229.5851 118.7712  1.00271193 11943"}}, "geometry": {"type": "Point", "coordinates": [128.91034586816053, 0.0341053118567105]}}, {"type": "Feature", "properties": {"norad_id": 54027, "name": "GALAXY 34 (G-34)", "group": "intelsat", "lat": 0.03889907258967647, "lon": 132.95931639172588, "alt_km": 35792.22006479974, "timestamp": "2025-12-20T11:30:28.038992+00:00", "meta": {"OBJECT_NAME": "GALAXY 34 (G-34)", "OBJECT_ID": "2022-128B", "EPOCH": "2025-12-20T04:45:38.640096", "MEAN_MOTION": 1.00267808, "ECCENTRICITY": 0.0001837, "INCLINATION": 0.0229, "RA_OF_ASC_NODE": 8.4334, "ARG_OF_PERICENTER": 254.8895, "MEAN_ANOMALY": 128.1832, "EPHEMERIS_TYPE": 0, "CLASSIFICATION_TYPE": "U", "NORAD_CAT_ID": 54027, "ELEMENT_SET_NO": 999, "REV_AT_EPOCH": 1211, "BSTAR": 0, "MEAN_MOTION_DOT": 0, "MEAN_MOTION_DDOT": 0}, "tle": {"line1": "1 54027U 22128B   25354.19836389  .00000000  00000+0  00000+0 0  9997", "line2": "2 54027   0.0229   8.4334 0001837 254.8895 128.1832  1.00267808 12117"}}, "geometry": {"type": "Point", "coordinates": [132.95931639172588, 0.03889907258967647]}}, {"type": "Feature", "properties": {"norad_id": 54243, "name": "GALAXY 31 (G-31)", "group": "intelsat", "lat": 0.020489264766370145, "lon": 140.91064988656075, "alt_km": 35790.57748293982, "timestamp": "2025-12-20T11:30:28.039004+00:00", "meta": {"OBJECT_NAME": "GALAXY 31 (G-31)", "OBJECT_ID": "2022-153A", "EPOCH": "2025-12-20T02:23:03.438240", "MEAN_MOTION": 1.00271063, "ECCENTRICITY": 0.0001369, "INCLINATION": 0.0164, "RA_OF_ASC_NODE": 76.5416, "ARG_OF_PERICENTER": 202.5346, "MEAN_ANOMALY": 84.6283, "EPHEMERIS_TYPE": 0, "CLASSIFICATION_TYPE": "U", "NORAD_CAT_ID": 54243, "ELEMENT_SET_NO": 999, "REV_AT_EPOCH": 533, "BSTAR": 0, "MEAN_MOTION_DOT": 3.7e-07, "MEAN_MOTION_DDOT": 0}, "tle": {"line1": "1 54243U 22153A   25354.09934535  .00000037  00000+0  00000+0 0  9996", "line2": "2 54243   0.0164  76.5416 0001369 202.5346  84.6283  1.00271063  5333"}}, "geometry": {"type": "Point", "coordinates": [140.91064988656075, 0.020489264766370145]}}, {"type": "Feature", "properties": {"norad_id": 54244, "name": "GALAXY 32 (G-32)", "group": "intelsat", "lat": 0.008125031652945026, "lon": 170.91425712844617, "alt_km": 35793.13947397555, "timestamp": "2025-12-20T11:30:28.039016+00:00", "meta": {"OBJECT_NAME": "GALAXY 32 (G-32)", "OBJECT_ID": "2022-153B", "EPOCH": "2025-12-19T12:21:45.204192", "MEAN_MOTION": 1.00271304, "ECCENTRICITY": 0.0001932, "INCLINATION": 0.0112, "RA_OF_ASC_NODE": 8.1777, "ARG_OF_PERICENTER": 310.6888, "MEAN_ANOMALY": 223.9419, "EPHEMERIS_TYPE": 0, "CLASSIFICATION_TYPE": "U", "NORAD_CAT_ID": 54244, "ELEMENT_SET_NO": 999, "REV_AT_EPOCH": 1134, "BSTAR": 0, "MEAN_MOTION_DOT": -1.5e-06, "MEAN_MOTION_DDOT": 0}, "tle": {"line1": "1 54244U 22153B   25353.51510653 -.00000150  00000+0  00000+0 0  9991", "line2": "2 54244   0.0112   8.1777 0001932 310.6888 223.9419  1.00271304 11341"}}, "geometry": {"type": "Point", "coordinates": [170.91425712844617, 0.008125031652945026]}}, {"type": "Feature", "properties": {"norad_id": 54741, "name": "GALAXY 35 (G-35)", "group": "intelsat", "lat": 0.018904632341802077, "lon": 168.80239101126523, "alt_km": 35788.03531736124, "timestamp": "2025-12-20T11:30:28.039028+00:00", "meta": {"OBJECT_NAME": "GALAXY 35 (G-35)", "OBJECT_ID": "2022-170A", "EPOCH": "2025-12-20T04:13:38.642016", "MEAN_MOTION": 1.00272292, "ECCENTRICITY": 0.0002145, "INCLINATION": 0.015, "RA_OF_ASC_NODE": 47.9126, "ARG_OF_PERICENTER": 224.1788, "MEAN_ANOMALY": 147.2393, "EPHEMERIS_TYPE": 0, "CLASSIFICATION_TYPE": "U", "NORAD_CAT_ID": 54741, "ELEMENT_SET_NO": 999, "REV_AT_EPOCH": 1109, "BSTAR": 0, "MEAN_MOTION_DOT": -1.38e-06, "MEAN_MOTION_DDOT": 0}, "tle": {"line1": "1 54741U 22170A   25354.17614169 -.00000138  00000+0  00000+0 0  9998", "line2": "2 54741   0.0150  47.9126 0002145 224.1788 147.2393  1.00272292 11097"}}, "geometry": {"type": "Point", "coordinates": [168.80239101126523, 0.018904632341802077]}}, {"type": "Feature", "properties": {"norad_id": 54742, "name": "GALAXY 36 (G-36)", "group": "intelsat", "lat": 0.004675184411570847, "lon": 172.90653559739164, "alt_km": 35788.16032913915, "timestamp": "2025-12-20T11:30:28.039040+00:00", "meta": {"OBJECT_NAME": "GALAXY 36 (G-36)", "OBJECT_ID": "2022-170B", "EPOCH": "2025-12-19T11:26:17.746656", "MEAN_MOTION": 1.00269448, "ECCENTRICITY": 3.277e-05, "INCLINATION": 0.0154, "RA_OF_ASC_NODE": 1.2484, "ARG_OF_PERICENTER": 356.3227, "MEAN_ANOMALY": 173.3219, "EPHEMERIS_TYPE": 0, "CLASSIFICATION_TYPE": "U", "NORAD_CAT_ID": 54742, "ELEMENT_SET_NO": 999, "REV_AT_EPOCH": 1097, "BSTAR": 0, "MEAN_MOTION_DOT": 0, "MEAN_MOTION_DDOT": 0}, "tle": {"line1": "1 54742U 22170B   25353.47659429  .00000000  00000+0  00000+0 0  9996", "line2": "2 54742   0.0154   1.2484 0000327 356.3227 173.3219  1.00269448 10970"}}, "geometry": {"type": "Point", "coordinates": [172.90653559739164, 0.004675184411570847]}}, {"type": "Feature", "properties": {"norad_id": 57493, "name": "GALAXY 37 (G-37)", "group": "intelsat", "lat": 0.028323491912211, "lon": 134.90053893698254, "alt_km": 35792.277563373675, "timestamp": "2025-12-20T11:30:28.039051+00:00", "meta": {"OBJECT_NAME": "GALAXY 37 (G-37)", "OBJECT_ID": "2023-112A", "EPOCH": "2025-12-20T04:45:38.640096", "MEAN_MOTION": 1.00270819, "ECCENTRICITY": 0.000192, "INCLINATION": 0.0153, "RA_OF_ASC_NODE": 356.3193, "ARG_OF_PERICENTER": 275.5687, "MEAN_ANOMALY": 121.5554, "EPHEMERIS_TYPE": 0, "CLASSIFICATION_TYPE": "U", "NORAD_CAT_ID": 57493, "ELEMENT_SET_NO": 999, "REV_AT_EPOCH": 874, "BSTAR": 0, "MEAN_MOTION_DOT": 7.2e-07, "MEAN_MOTION_DDOT": 0}, "tle": {"line1": "1 57493U 23112A   25354.19836389  .00000072  00000+0  00000+0 0  9990", "line2": "2 57493   0.0153 356.3193 0001920 275.5687 121.5554  1.00270819  8741"}}, "geometry": {"type": "Point", "coordinates": [134.90053893698254, 0.028323491912211]}}]}